{
    "links": {
        "self": "http://www.neowsapp.com/rest/v1/neo/3557083?api_key=iIulBulltgU6a56xZRHN4H3l9WmuAYTsLGpBGhQ2"
    },
    "id": "3557083",
    "neo_reference_id": "3557083",
    "name": "(2011 BG59)",
    "designation": "2011 BG59",
    "nasa_jpl_url": "http://ssd.jpl.nasa.gov/sbdb.cgi?sstr=3557083",
    "absolute_magnitude_h": 25.4,
    "estimated_diameter": {
        "kilometers": {
            "estimated_diameter_min": 0.022108281,
            "estimated_diameter_max": 0.0494356193
        },
        "meters": {
            "estimated_diameter_min": 22.1082810359,
            "estimated_diameter_max": 49.435619262
        },
        "miles": {
            "estimated_diameter_min": 0.0137374447,
            "estimated_diameter_max": 0.0307178602
        },
        "feet": {
            "estimated_diameter_min": 72.5337327539,
            "estimated_diameter_max": 162.1903570994
        }
    },
    "is_potentially_hazardous_asteroid": false,
    "close_approach_data": [
        {
            "close_approach_date": "2011-01-16",
            "close_approach_date_full": "2011-Jan-16 02:00",
            "epoch_date_close_approach": 1295143200000,
            "relative_velocity": {
                "kilometers_per_second": "6.0350315341",
                "kilometers_per_hour": "21726.1135229273",
                "miles_per_hour": "13499.7620387323"
            },
            "miss_distance": {
                "astronomical": "0.0912250074",
                "lunar": "35.4865278786",
                "kilometers": "13647066.797774238",
                "miles": "8479894.0902229644"
            },
            "orbiting_body": "Earth"
        }
    ],
    "orbital_data": {
        "orbit_id": "9",
        "orbit_determination_date": "2017-04-06 08:54:42",
        "first_observation_date": "2011-01-30",
        "last_observation_date": "2011-02-11",
        "data_arc_in_days": 12,
        "observations_used": 18,
        "orbit_uncertainty": "8",
        "minimum_orbit_intersection": ".0906574",
        "jupiter_tisserand_invariant": "4.453",
        "epoch_osculation": "2455594.5",
        "eccentricity": ".3140497760282723",
        "semi_major_axis": "1.511513523373444",
        "inclination": "8.949294002527472",
        "ascending_node_longitude": "314.5963663825452",
        "orbital_period": "678.760377536668",
        "perihelion_distance": "1.036823039894309",
        "perihelion_argument": "137.2643490743673",
        "aphelion_distance": "1.986204006852579",
        "perihelion_time": "2455554.954787806666",
        "mean_anomaly": "20.97393551648669",
        "mean_motion": ".5303786312726424",
        "equinox": "J2000",
        "orbit_class": {
            "orbit_class_type": "AMO",
            "orbit_class_description": "Near-Earth asteroid orbits similar to that of 1221 Amor",
            "orbit_class_range": "1.017 AU < q (perihelion) < 1.3 AU"
        }
    },
    "is_sentry_object": false
}